{"type": "FeatureCollection", "features": [{"type": "Feature", "properties": {"name": "Road-Z01", "zone_id": "Z01"}, "geometry": {"type": "LineString", "coordinates": [[94.09207708619216, 25.558234200428007], [94.14207708619216, 25.538234200428008], [94.19207708619216, 25.518234200428008]]}}, {"type": "Feature", "properties": {"name": "Road-Z02", "zone_id": "Z02"}, "geometry": {"type": "LineString", "coordinates": [[91.76398448896815, 25.671440100243526], [91.81398448896815, 25.651440100243526], [91.86398448896814, 25.631440100243527]]}}, {"type": "Feature", "properties": {"name": "Road-Z03", "zone_id": "Z03"}, "geometry": {"type": "LineString", "coordinates": [[92.63022523440411, 23.792790819344187], [92.6802252344041, 23.772790819344188], [92.7302252344041, 23.752790819344188]]}}, {"type": "Feature", "properties": {"name": "Road-Z04", "zone_id": "Z04"}, "geometry": {"type": "LineString", "coordinates": [[88.57784113887297, 27.370459617869365], [88.62784113887297, 27.350459617869365], [88.67784113887296, 27.330459617869366]]}}, {"type": "Feature", "properties": {"name": "Road-Z05", "zone_id": "Z05"}, "geometry": {"type": "LineString", "coordinates": [[93.50886475188328, 27.069799709371583], [93.55886475188328, 27.049799709371584], [93.60886475188327, 27.029799709371584]]}}, {"type": "Feature", "properties": {"name": "Road-Z06", "zone_id": "Z06"}, "geometry": {"type": "LineString", "coordinates": [[93.92634652409757, 24.843816935254498], [93.97634652409756, 24.8238169352545], [94.02634652409756, 24.8038169352545]]}}, {"type": "Feature", "properties": {"name": "Road-Z07", "zone_id": "Z07"}, "geometry": {"type": "LineString", "coordinates": [[91.56280426459, 26.256194792346474], [91.61280426459, 26.236194792346474], [91.66280426459, 26.216194792346474]]}}, {"type": "Feature", "properties": {"name": "Road-Z08", "zone_id": "Z08"}, "geometry": {"type": "LineString", "coordinates": [[91.82717524445032, 27.620356115865125], [91.87717524445031, 27.600356115865125], [91.92717524445031, 27.580356115865126]]}}, {"type": "Feature", "properties": {"name": "Road-Z09", "zone_id": "Z09"}, "geometry": {"type": "LineString", "coordinates": [[93.40382364527704, 24.323788214837723], [93.45382364527704, 24.303788214837724], [93.50382364527704, 24.283788214837724]]}}, {"type": "Feature", "properties": {"name": "Road-Z10", "zone_id": "Z10"}, "geometry": {"type": "LineString", "coordinates": [[93.71693969089857, 25.937213804502523], [93.76693969089857, 25.917213804502524], [93.81693969089856, 25.897213804502524]]}}, {"type": "Feature", "properties": {"name": "Road-Z11", "zone_id": "Z11"}, "geometry": {"type": "LineString", "coordinates": [[91.69465081485384, 25.411429207138344], [91.74465081485384, 25.391429207138344], [91.79465081485384, 25.371429207138345]]}}, {"type": "Feature", "properties": {"name": "Road-Z12", "zone_id": "Z12"}, "geometry": {"type": "LineString", "coordinates": [[92.72210682770339, 22.925433865303823], [92.77210682770338, 22.905433865303824], [92.82210682770338, 22.885433865303824]]}}, {"type": "Feature", "properties": {"name": "Road-Z13", "zone_id": "Z13"}, "geometry": {"type": "LineString", "coordinates": [[94.02394392828269, 25.625590488215433], [94.07394392828269, 25.605590488215434], [94.12394392828269, 25.585590488215434]]}}, {"type": "Feature", "properties": {"name": "Road-Z14", "zone_id": "Z14"}, "geometry": {"type": "LineString", "coordinates": [[91.76006989245354, 25.708204032166627], [91.81006989245354, 25.688204032166627], [91.86006989245354, 25.668204032166628]]}}, {"type": "Feature", "properties": {"name": "Road-Z15", "zone_id": "Z15"}, "geometry": {"type": "LineString", "coordinates": [[92.55288527117695, 23.70845368125986], [92.60288527117694, 23.688453681259862], [92.65288527117694, 23.668453681259862]]}}, {"type": "Feature", "properties": {"name": "Road-Z16", "zone_id": "Z16"}, "geometry": {"type": "LineString", "coordinates": [[88.58425207381093, 27.36449378551782], [88.63425207381093, 27.34449378551782], [88.68425207381092, 27.32449378551782]]}}, {"type": "Feature", "properties": {"name": "Road-Z17", "zone_id": "Z17"}, "geometry": {"type": "LineString", "coordinates": [[93.48081382598937, 27.00440789923107], [93.53081382598937, 26.98440789923107], [93.58081382598937, 26.96440789923107]]}}, {"type": "Feature", "properties": {"name": "Road-Z18", "zone_id": "Z18"}, "geometry": {"type": "LineString", "coordinates": [[94.00771423030086, 24.85585439184122], [94.05771423030086, 24.83585439184122], [94.10771423030086, 24.81585439184122]]}}, {"type": "Feature", "properties": {"name": "Road-Z19", "zone_id": "Z19"}, "geometry": {"type": "LineString", "coordinates": [[91.67960847493161, 26.14136451294], [91.72960847493161, 26.12136451294], [91.7796084749316, 26.101364512940002]]}}, {"type": "Feature", "properties": {"name": "Road-Z20", "zone_id": "Z20"}, "geometry": {"type": "LineString", "coordinates": [[91.81012724257339, 27.669810337906902], [91.86012724257338, 27.649810337906903], [91.91012724257338, 27.629810337906903]]}}, {"type": "Feature", "properties": {"name": "Road-Z21", "zone_id": "Z21"}, "geometry": {"type": "LineString", "coordinates": [[93.71212692125194, 24.24860189355601], [93.76212692125193, 24.22860189355601], [93.81212692125193, 24.20860189355601]]}}, {"type": "Feature", "properties": {"name": "Road-Z22", "zone_id": "Z22"}, "geometry": {"type": "LineString", "coordinates": [[93.79316148662633, 26.016755225963966], [93.84316148662633, 25.996755225963966], [93.89316148662633, 25.976755225963966]]}}, {"type": "Feature", "properties": {"name": "Road-Z23", "zone_id": "Z23"}, "geometry": {"type": "LineString", "coordinates": [[91.68993766931764, 25.370161818058254], [91.73993766931764, 25.350161818058254], [91.78993766931764, 25.330161818058254]]}}, {"type": "Feature", "properties": {"name": "Road-Z24", "zone_id": "Z24"}, "geometry": {"type": "LineString", "coordinates": [[92.67728362745825, 22.946622299549475], [92.72728362745825, 22.926622299549475], [92.77728362745825, 22.906622299549475]]}}, {"type": "Feature", "properties": {"name": "Road-Z25", "zone_id": "Z25"}, "geometry": {"type": "LineString", "coordinates": [[94.1049897081796, 25.62063309438649], [94.1549897081796, 25.60063309438649], [94.2049897081796, 25.580633094386492]]}}, {"type": "Feature", "properties": {"name": "Road-Z26", "zone_id": "Z26"}, "geometry": {"type": "LineString", "coordinates": [[91.89122670696452, 25.564028014702114], [91.94122670696451, 25.544028014702114], [91.99122670696451, 25.524028014702115]]}}, {"type": "Feature", "properties": {"name": "Road-Z27", "zone_id": "Z27"}, "geometry": {"type": "LineString", "coordinates": [[92.60884529648553, 23.712855702750478], [92.65884529648552, 23.692855702750478], [92.70884529648552, 23.67285570275048]]}}, {"type": "Feature", "properties": {"name": "Road-Z28", "zone_id": "Z28"}, "geometry": {"type": "LineString", "coordinates": [[88.63859963154403, 27.40167519940498], [88.68859963154402, 27.38167519940498], [88.73859963154402, 27.36167519940498]]}}, {"type": "Feature", "properties": {"name": "Road-Z29", "zone_id": "Z29"}, "geometry": {"type": "LineString", "coordinates": [[93.56121357466024, 27.038067030461036], [93.61121357466024, 27.018067030461037], [93.66121357466024, 26.998067030461037]]}}, {"type": "Feature", "properties": {"name": "Road-Z30", "zone_id": "Z30"}, "geometry": {"type": "LineString", "coordinates": [[93.94318558305507, 24.843562953937628], [93.99318558305507, 24.82356295393763], [94.04318558305506, 24.80356295393763]]}}, {"type": "Feature", "properties": {"name": "Road-Z31", "zone_id": "Z31"}, "geometry": {"type": "LineString", "coordinates": [[91.58988929045267, 26.17560387147071], [91.63988929045267, 26.15560387147071], [91.68988929045267, 26.13560387147071]]}}, {"type": "Feature", "properties": {"name": "Road-Z32", "zone_id": "Z32"}, "geometry": {"type": "LineString", "coordinates": [[91.7962991296481, 27.72900066820367], [91.8462991296481, 27.70900066820367], [91.8962991296481, 27.689000668203672]]}}, {"type": "Feature", "properties": {"name": "Road-Z33", "zone_id": "Z33"}, "geometry": {"type": "LineString", "coordinates": [[93.70318558432695, 24.426379561370304], [93.75318558432694, 24.406379561370304], [93.80318558432694, 24.386379561370305]]}}, {"type": "Feature", "properties": {"name": "Road-Z34", "zone_id": "Z34"}, "geometry": {"type": "LineString", "coordinates": [[93.64772635947615, 25.91101675562973], [93.69772635947615, 25.89101675562973], [93.74772635947615, 25.871016755629732]]}}, {"type": "Feature", "properties": {"name": "Road-Z35", "zone_id": "Z35"}, "geometry": {"type": "LineString", "coordinates": [[91.54719057344356, 25.24963068844476], [91.59719057344356, 25.22963068844476], [91.64719057344355, 25.20963068844476]]}}, {"type": "Feature", "properties": {"name": "Road-Z36", "zone_id": "Z36"}, "geometry": {"type": "LineString", "coordinates": [[92.63564696195391, 22.99640055424169], [92.6856469619539, 22.97640055424169], [92.7356469619539, 22.95640055424169]]}}, {"type": "Feature", "properties": {"name": "Road-Z37", "zone_id": "Z37"}, "geometry": {"type": "LineString", "coordinates": [[94.05485518673359, 25.76644281389392], [94.10485518673359, 25.74644281389392], [94.15485518673358, 25.72644281389392]]}}, {"type": "Feature", "properties": {"name": "Road-Z38", "zone_id": "Z38"}, "geometry": {"type": "LineString", "coordinates": [[91.78522258713795, 25.549255522002667], [91.83522258713795, 25.529255522002668], [91.88522258713795, 25.509255522002668]]}}, {"type": "Feature", "properties": {"name": "Road-Z39", "zone_id": "Z39"}, "geometry": {"type": "LineString", "coordinates": [[92.6255421471107, 23.647917415902217], [92.6755421471107, 23.627917415902218], [92.7255421471107, 23.607917415902218]]}}, {"type": "Feature", "properties": {"name": "Road-Z40", "zone_id": "Z40"}, "geometry": {"type": "LineString", "coordinates": [[88.54512737167622, 27.392445215031554], [88.59512737167621, 27.372445215031554], [88.64512737167621, 27.352445215031555]]}}, {"type": "Feature", "properties": {"name": "Road-Z41", "zone_id": "Z41"}, "geometry": {"type": "LineString", "coordinates": [[93.50667868404665, 27.164508887149108], [93.55667868404664, 27.144508887149108], [93.60667868404664, 27.12450888714911]]}}, {"type": "Feature", "properties": {"name": "Road-Z42", "zone_id": "Z42"}, "geometry": {"type": "LineString", "coordinates": [[93.77288507516573, 24.91548750654199], [93.82288507516573, 24.89548750654199], [93.87288507516573, 24.87548750654199]]}}, {"type": "Feature", "properties": {"name": "Road-Z43", "zone_id": "Z43"}, "geometry": {"type": "LineString", "coordinates": [[91.78794432926156, 26.242457424402733], [91.83794432926156, 26.222457424402734], [91.88794432926156, 26.202457424402734]]}}, {"type": "Feature", "properties": {"name": "Road-Z44", "zone_id": "Z44"}, "geometry": {"type": "LineString", "coordinates": [[91.8072010995027, 27.570428303738435], [91.8572010995027, 27.550428303738435], [91.9072010995027, 27.530428303738436]]}}, {"type": "Feature", "properties": {"name": "Road-Z45", "zone_id": "Z45"}, "geometry": {"type": "LineString", "coordinates": [[93.59750949903349, 24.272929661053656], [93.64750949903349, 24.252929661053656], [93.69750949903349, 24.232929661053657]]}}, {"type": "Feature", "properties": {"name": "Road-Z46", "zone_id": "Z46"}, "geometry": {"type": "LineString", "coordinates": [[93.7199553519857, 25.944510935603795], [93.7699553519857, 25.924510935603795], [93.8199553519857, 25.904510935603795]]}}, {"type": "Feature", "properties": {"name": "Road-Z47", "zone_id": "Z47"}, "geometry": {"type": "LineString", "coordinates": [[91.68826884613541, 25.300425718761], [91.73826884613541, 25.280425718761002], [91.78826884613541, 25.260425718761002]]}}, {"type": "Feature", "properties": {"name": "Road-Z48", "zone_id": "Z48"}, "geometry": {"type": "LineString", "coordinates": [[92.64395157755578, 22.873881228205008], [92.69395157755578, 22.853881228205008], [92.74395157755578, 22.83388122820501]]}}], "properties": {"data_mode": "DEMO", "note": "synthetic"}}