{"type": "FeatureCollection", "features": [{"type": "Feature", "properties": {"name": "Village-Z01", "zone_id": "Z01", "population": 1612}, "geometry": {"type": "Point", "coordinates": [94.15207708619216, 25.54823420042801]}}, {"type": "Feature", "properties": {"name": "Village-Z02", "zone_id": "Z02", "population": 3054}, "geometry": {"type": "Point", "coordinates": [91.82398448896815, 25.661440100243528]}}, {"type": "Feature", "properties": {"name": "Village-Z03", "zone_id": "Z03", "population": 2322}, "geometry": {"type": "Point", "coordinates": [92.69022523440411, 23.78279081934419]}}, {"type": "Feature", "properties": {"name": "Village-Z04", "zone_id": "Z04", "population": 2856}, "geometry": {"type": "Point", "coordinates": [88.63784113887297, 27.360459617869367]}}, {"type": "Feature", "properties": {"name": "Village-Z05", "zone_id": "Z05", "population": 3893}, "geometry": {"type": "Point", "coordinates": [93.56886475188328, 27.059799709371585]}}, {"type": "Feature", "properties": {"name": "Village-Z06", "zone_id": "Z06", "population": 178}, "geometry": {"type": "Point", "coordinates": [93.98634652409757, 24.8338169352545]}}, {"type": "Feature", "properties": {"name": "Village-Z07", "zone_id": "Z07", "population": 2452}, "geometry": {"type": "Point", "coordinates": [91.62280426459, 26.246194792346476]}}, {"type": "Feature", "properties": {"name": "Village-Z08", "zone_id": "Z08", "population": 1972}, "geometry": {"type": "Point", "coordinates": [91.88717524445032, 27.610356115865127]}}, {"type": "Feature", "properties": {"name": "Village-Z09", "zone_id": "Z09", "population": 1734}, "geometry": {"type": "Point", "coordinates": [93.46382364527705, 24.313788214837725]}}, {"type": "Feature", "properties": {"name": "Village-Z10", "zone_id": "Z10", "population": 1228}, "geometry": {"type": "Point", "coordinates": [93.77693969089857, 25.927213804502525]}}, {"type": "Feature", "properties": {"name": "Village-Z11", "zone_id": "Z11", "population": 1082}, "geometry": {"type": "Point", "coordinates": [91.75465081485385, 25.401429207138346]}}, {"type": "Feature", "properties": {"name": "Village-Z12", "zone_id": "Z12", "population": 2758}, "geometry": {"type": "Point", "coordinates": [92.78210682770339, 22.915433865303825]}}, {"type": "Feature", "properties": {"name": "Village-Z13", "zone_id": "Z13", "population": 1353}, "geometry": {"type": "Point", "coordinates": [94.0839439282827, 25.615590488215435]}}, {"type": "Feature", "properties": {"name": "Village-Z14", "zone_id": "Z14", "population": 1077}, "geometry": {"type": "Point", "coordinates": [91.82006989245355, 25.69820403216663]}}, {"type": "Feature", "properties": {"name": "Village-Z15", "zone_id": "Z15", "population": 1814}, "geometry": {"type": "Point", "coordinates": [92.61288527117695, 23.698453681259863]}}, {"type": "Feature", "properties": {"name": "Village-Z16", "zone_id": "Z16", "population": 1464}, "geometry": {"type": "Point", "coordinates": [88.64425207381093, 27.35449378551782]}}, {"type": "Feature", "properties": {"name": "Village-Z17", "zone_id": "Z17", "population": 3883}, "geometry": {"type": "Point", "coordinates": [93.54081382598937, 26.99440789923107]}}, {"type": "Feature", "properties": {"name": "Village-Z18", "zone_id": "Z18", "population": 2910}, "geometry": {"type": "Point", "coordinates": [94.06771423030087, 24.845854391841222]}}, {"type": "Feature", "properties": {"name": "Village-Z19", "zone_id": "Z19", "population": 2799}, "geometry": {"type": "Point", "coordinates": [91.73960847493161, 26.131364512940003]}}, {"type": "Feature", "properties": {"name": "Village-Z20", "zone_id": "Z20", "population": 2823}, "geometry": {"type": "Point", "coordinates": [91.87012724257339, 27.659810337906904]}}, {"type": "Feature", "properties": {"name": "Village-Z21", "zone_id": "Z21", "population": 1220}, "geometry": {"type": "Point", "coordinates": [93.77212692125194, 24.238601893556012]}}, {"type": "Feature", "properties": {"name": "Village-Z22", "zone_id": "Z22", "population": 2255}, "geometry": {"type": "Point", "coordinates": [93.85316148662633, 26.006755225963968]}}, {"type": "Feature", "properties": {"name": "Village-Z23", "zone_id": "Z23", "population": 916}, "geometry": {"type": "Point", "coordinates": [91.74993766931765, 25.360161818058256]}}, {"type": "Feature", "properties": {"name": "Village-Z24", "zone_id": "Z24", "population": 3613}, "geometry": {"type": "Point", "coordinates": [92.73728362745825, 22.936622299549477]}}, {"type": "Feature", "properties": {"name": "Village-Z25", "zone_id": "Z25", "population": 1008}, "geometry": {"type": "Point", "coordinates": [94.1649897081796, 25.610633094386493]}}, {"type": "Feature", "properties": {"name": "Village-Z26", "zone_id": "Z26", "population": 769}, "geometry": {"type": "Point", "coordinates": [91.95122670696452, 25.554028014702116]}}, {"type": "Feature", "properties": {"name": "Village-Z27", "zone_id": "Z27", "population": 408}, "geometry": {"type": "Point", "coordinates": [92.66884529648553, 23.70285570275048]}}, {"type": "Feature", "properties": {"name": "Village-Z28", "zone_id": "Z28", "population": 3816}, "geometry": {"type": "Point", "coordinates": [88.69859963154403, 27.391675199404983]}}, {"type": "Feature", "properties": {"name": "Village-Z29", "zone_id": "Z29", "population": 2723}, "geometry": {"type": "Point", "coordinates": [93.62121357466025, 27.028067030461038]}}, {"type": "Feature", "properties": {"name": "Village-Z30", "zone_id": "Z30", "population": 515}, "geometry": {"type": "Point", "coordinates": [94.00318558305507, 24.83356295393763]}}, {"type": "Feature", "properties": {"name": "Village-Z31", "zone_id": "Z31", "population": 2963}, "geometry": {"type": "Point", "coordinates": [91.64988929045268, 26.16560387147071]}}, {"type": "Feature", "properties": {"name": "Village-Z32", "zone_id": "Z32", "population": 519}, "geometry": {"type": "Point", "coordinates": [91.85629912964811, 27.719000668203673]}}, {"type": "Feature", "properties": {"name": "Village-Z33", "zone_id": "Z33", "population": 1103}, "geometry": {"type": "Point", "coordinates": [93.76318558432695, 24.416379561370306]}}, {"type": "Feature", "properties": {"name": "Village-Z34", "zone_id": "Z34", "population": 687}, "geometry": {"type": "Point", "coordinates": [93.70772635947615, 25.901016755629733]}}, {"type": "Feature", "properties": {"name": "Village-Z35", "zone_id": "Z35", "population": 3204}, "geometry": {"type": "Point", "coordinates": [91.60719057344356, 25.239630688444763]}}, {"type": "Feature", "properties": {"name": "Village-Z36", "zone_id": "Z36", "population": 1484}, "geometry": {"type": "Point", "coordinates": [92.69564696195391, 22.98640055424169]}}, {"type": "Feature", "properties": {"name": "Village-Z37", "zone_id": "Z37", "population": 908}, "geometry": {"type": "Point", "coordinates": [94.11485518673359, 25.756442813893923]}}, {"type": "Feature", "properties": {"name": "Village-Z38", "zone_id": "Z38", "population": 2873}, "geometry": {"type": "Point", "coordinates": [91.84522258713795, 25.53925552200267]}}, {"type": "Feature", "properties": {"name": "Village-Z39", "zone_id": "Z39", "population": 3326}, "geometry": {"type": "Point", "coordinates": [92.68554214711071, 23.63791741590222]}}, {"type": "Feature", "properties": {"name": "Village-Z40", "zone_id": "Z40", "population": 296}, "geometry": {"type": "Point", "coordinates": [88.60512737167622, 27.382445215031556]}}, {"type": "Feature", "properties": {"name": "Village-Z41", "zone_id": "Z41", "population": 175}, "geometry": {"type": "Point", "coordinates": [93.56667868404665, 27.15450888714911]}}, {"type": "Feature", "properties": {"name": "Village-Z42", "zone_id": "Z42", "population": 3815}, "geometry": {"type": "Point", "coordinates": [93.83288507516573, 24.90548750654199]}}, {"type": "Feature", "properties": {"name": "Village-Z43", "zone_id": "Z43", "population": 394}, "geometry": {"type": "Point", "coordinates": [91.84794432926157, 26.232457424402735]}}, {"type": "Feature", "properties": {"name": "Village-Z44", "zone_id": "Z44", "population": 462}, "geometry": {"type": "Point", "coordinates": [91.86720109950271, 27.560428303738437]}}, {"type": "Feature", "properties": {"name": "Village-Z45", "zone_id": "Z45", "population": 2745}, "geometry": {"type": "Point", "coordinates": [93.6575094990335, 24.262929661053658]}}, {"type": "Feature", "properties": {"name": "Village-Z46", "zone_id": "Z46", "population": 2620}, "geometry": {"type": "Point", "coordinates": [93.7799553519857, 25.934510935603797]}}, {"type": "Feature", "properties": {"name": "Village-Z47", "zone_id": "Z47", "population": 3025}, "geometry": {"type": "Point", "coordinates": [91.74826884613542, 25.290425718761004]}}, {"type": "Feature", "properties": {"name": "Village-Z48", "zone_id": "Z48", "population": 3870}, "geometry": {"type": "Point", "coordinates": [92.70395157755578, 22.86388122820501]}}], "properties": {"data_mode": "DEMO", "note": "synthetic"}}