{"type": "FeatureCollection", "features": [{"type": "Feature", "properties": {"zone_id": "Z01", "name": "Kohima Sector 1", "district": "Kohima", "state": "Nagaland"}, "geometry": {"type": "Polygon", "coordinates": [[[94.11207708619216, 25.508234200428006], [94.17207708619216, 25.508234200428006], [94.17207708619216, 25.56823420042801], [94.11207708619216, 25.56823420042801], [94.11207708619216, 25.508234200428006]]]}}, {"type": "Feature", "properties": {"zone_id": "Z02", "name": "Shillong Sector 1", "district": "East Khasi Hills", "state": "Meghalaya"}, "geometry": {"type": "Polygon", "coordinates": [[[91.78398448896814, 25.621440100243525], [91.84398448896815, 25.621440100243525], [91.84398448896815, 25.681440100243528], [91.78398448896814, 25.681440100243528], [91.78398448896814, 25.621440100243525]]]}}, {"type": "Feature", "properties": {"zone_id": "Z03", "name": "Aizawl Sector 1", "district": "Aizawl", "state": "Mizoram"}, "geometry": {"type": "Polygon", "coordinates": [[[92.6502252344041, 23.742790819344187], [92.7102252344041, 23.742790819344187], [92.7102252344041, 23.80279081934419], [92.6502252344041, 23.80279081934419], [92.6502252344041, 23.742790819344187]]]}}, {"type": "Feature", "properties": {"zone_id": "Z04", "name": "Gangtok Sector 1", "district": "Gangtok", "state": "Sikkim"}, "geometry": {"type": "Polygon", "coordinates": [[[88.59784113887297, 27.320459617869364], [88.65784113887297, 27.320459617869364], [88.65784113887297, 27.380459617869366], [88.59784113887297, 27.380459617869366], [88.59784113887297, 27.320459617869364]]]}}, {"type": "Feature", "properties": {"zone_id": "Z05", "name": "Itanagar Sector 1", "district": "Papum Pare", "state": "Arunachal Pradesh"}, "geometry": {"type": "Polygon", "coordinates": [[[93.52886475188328, 27.019799709371583], [93.58886475188328, 27.019799709371583], [93.58886475188328, 27.079799709371585], [93.52886475188328, 27.079799709371585], [93.52886475188328, 27.019799709371583]]]}}, {"type": "Feature", "properties": {"zone_id": "Z06", "name": "Imphal Sector 1", "district": "Imphal West", "state": "Manipur"}, "geometry": {"type": "Polygon", "coordinates": [[[93.94634652409756, 24.793816935254497], [94.00634652409757, 24.793816935254497], [94.00634652409757, 24.8538169352545], [93.94634652409756, 24.8538169352545], [93.94634652409756, 24.793816935254497]]]}}, {"type": "Feature", "properties": {"zone_id": "Z07", "name": "Guwahati Sector 1", "district": "Kamrup Metro", "state": "Assam"}, "geometry": {"type": "Polygon", "coordinates": [[[91.58280426459, 26.206194792346473], [91.64280426459, 26.206194792346473], [91.64280426459, 26.266194792346475], [91.58280426459, 26.266194792346475], [91.58280426459, 26.206194792346473]]]}}, {"type": "Feature", "properties": {"zone_id": "Z08", "name": "Tawang Sector 1", "district": "Tawang", "state": "Arunachal Pradesh"}, "geometry": {"type": "Polygon", "coordinates": [[[91.84717524445031, 27.570356115865124], [91.90717524445031, 27.570356115865124], [91.90717524445031, 27.630356115865126], [91.84717524445031, 27.630356115865126], [91.84717524445031, 27.570356115865124]]]}}, {"type": "Feature", "properties": {"zone_id": "Z09", "name": "Churachandpur Sector 1", "district": "Churachandpur", "state": "Manipur"}, "geometry": {"type": "Polygon", "coordinates": [[[93.42382364527704, 24.273788214837722], [93.48382364527704, 24.273788214837722], [93.48382364527704, 24.333788214837725], [93.42382364527704, 24.333788214837725], [93.42382364527704, 24.273788214837722]]]}}, {"type": "Feature", "properties": {"zone_id": "Z10", "name": "Dimapur Hills Sector 1", "district": "Dimapur", "state": "Nagaland"}, "geometry": {"type": "Polygon", "coordinates": [[[93.73693969089857, 25.887213804502522], [93.79693969089857, 25.887213804502522], [93.79693969089857, 25.947213804502525], [93.73693969089857, 25.947213804502525], [93.73693969089857, 25.887213804502522]]]}}, {"type": "Feature", "properties": {"zone_id": "Z11", "name": "Cherrapunji Sector 1", "district": "East Khasi Hills", "state": "Meghalaya"}, "geometry": {"type": "Polygon", "coordinates": [[[91.71465081485384, 25.361429207138343], [91.77465081485384, 25.361429207138343], [91.77465081485384, 25.421429207138345], [91.71465081485384, 25.421429207138345], [91.71465081485384, 25.361429207138343]]]}}, {"type": "Feature", "properties": {"zone_id": "Z12", "name": "Lunglei Sector 1", "district": "Lunglei", "state": "Mizoram"}, "geometry": {"type": "Polygon", "coordinates": [[[92.74210682770338, 22.875433865303823], [92.80210682770338, 22.875433865303823], [92.80210682770338, 22.935433865303825], [92.74210682770338, 22.935433865303825], [92.74210682770338, 22.875433865303823]]]}}, {"type": "Feature", "properties": {"zone_id": "Z13", "name": "Kohima Sector 2", "district": "Kohima", "state": "Nagaland"}, "geometry": {"type": "Polygon", "coordinates": [[[94.04394392828269, 25.575590488215433], [94.10394392828269, 25.575590488215433], [94.10394392828269, 25.635590488215435], [94.04394392828269, 25.635590488215435], [94.04394392828269, 25.575590488215433]]]}}, {"type": "Feature", "properties": {"zone_id": "Z14", "name": "Shillong Sector 2", "district": "East Khasi Hills", "state": "Meghalaya"}, "geometry": {"type": "Polygon", "coordinates": [[[91.78006989245354, 25.658204032166626], [91.84006989245354, 25.658204032166626], [91.84006989245354, 25.71820403216663], [91.78006989245354, 25.71820403216663], [91.78006989245354, 25.658204032166626]]]}}, {"type": "Feature", "properties": {"zone_id": "Z15", "name": "Aizawl Sector 2", "district": "Aizawl", "state": "Mizoram"}, "geometry": {"type": "Polygon", "coordinates": [[[92.57288527117694, 23.65845368125986], [92.63288527117695, 23.65845368125986], [92.63288527117695, 23.718453681259863], [92.57288527117694, 23.718453681259863], [92.57288527117694, 23.65845368125986]]]}}, {"type": "Feature", "properties": {"zone_id": "Z16", "name": "Gangtok Sector 2", "district": "Gangtok", "state": "Sikkim"}, "geometry": {"type": "Polygon", "coordinates": [[[88.60425207381093, 27.31449378551782], [88.66425207381093, 27.31449378551782], [88.66425207381093, 27.37449378551782], [88.60425207381093, 27.37449378551782], [88.60425207381093, 27.31449378551782]]]}}, {"type": "Feature", "properties": {"zone_id": "Z17", "name": "Itanagar Sector 2", "district": "Papum Pare", "state": "Arunachal Pradesh"}, "geometry": {"type": "Polygon", "coordinates": [[[93.50081382598937, 26.954407899231068], [93.56081382598937, 26.954407899231068], [93.56081382598937, 27.01440789923107], [93.50081382598937, 27.01440789923107], [93.50081382598937, 26.954407899231068]]]}}, {"type": "Feature", "properties": {"zone_id": "Z18", "name": "Imphal Sector 2", "district": "Imphal West", "state": "Manipur"}, "geometry": {"type": "Polygon", "coordinates": [[[94.02771423030086, 24.80585439184122], [94.08771423030086, 24.80585439184122], [94.08771423030086, 24.86585439184122], [94.02771423030086, 24.86585439184122], [94.02771423030086, 24.80585439184122]]]}}, {"type": "Feature", "properties": {"zone_id": "Z19", "name": "Guwahati Sector 2", "district": "Kamrup Metro", "state": "Assam"}, "geometry": {"type": "Polygon", "coordinates": [[[91.69960847493161, 26.09136451294], [91.75960847493161, 26.09136451294], [91.75960847493161, 26.151364512940003], [91.69960847493161, 26.151364512940003], [91.69960847493161, 26.09136451294]]]}}, {"type": "Feature", "properties": {"zone_id": "Z20", "name": "Tawang Sector 2", "district": "Tawang", "state": "Arunachal Pradesh"}, "geometry": {"type": "Polygon", "coordinates": [[[91.83012724257338, 27.6198103379069], [91.89012724257339, 27.6198103379069], [91.89012724257339, 27.679810337906904], [91.83012724257338, 27.679810337906904], [91.83012724257338, 27.6198103379069]]]}}, {"type": "Feature", "properties": {"zone_id": "Z21", "name": "Churachandpur Sector 2", "district": "Churachandpur", "state": "Manipur"}, "geometry": {"type": "Polygon", "coordinates": [[[93.73212692125193, 24.19860189355601], [93.79212692125193, 24.19860189355601], [93.79212692125193, 24.258601893556012], [93.73212692125193, 24.258601893556012], [93.73212692125193, 24.19860189355601]]]}}, {"type": "Feature", "properties": {"zone_id": "Z22", "name": "Dimapur Hills Sector 2", "district": "Dimapur", "state": "Nagaland"}, "geometry": {"type": "Polygon", "coordinates": [[[93.81316148662633, 25.966755225963965], [93.87316148662633, 25.966755225963965], [93.87316148662633, 26.026755225963967], [93.81316148662633, 26.026755225963967], [93.81316148662633, 25.966755225963965]]]}}, {"type": "Feature", "properties": {"zone_id": "Z23", "name": "Cherrapunji Sector 2", "district": "East Khasi Hills", "state": "Meghalaya"}, "geometry": {"type": "Polygon", "coordinates": [[[91.70993766931764, 25.320161818058253], [91.76993766931764, 25.320161818058253], [91.76993766931764, 25.380161818058255], [91.70993766931764, 25.380161818058255], [91.70993766931764, 25.320161818058253]]]}}, {"type": "Feature", "properties": {"zone_id": "Z24", "name": "Lunglei Sector 2", "district": "Lunglei", "state": "Mizoram"}, "geometry": {"type": "Polygon", "coordinates": [[[92.69728362745825, 22.896622299549474], [92.75728362745825, 22.896622299549474], [92.75728362745825, 22.956622299549476], [92.69728362745825, 22.956622299549476], [92.69728362745825, 22.896622299549474]]]}}, {"type": "Feature", "properties": {"zone_id": "Z25", "name": "Kohima Sector 3", "district": "Kohima", "state": "Nagaland"}, "geometry": {"type": "Polygon", "coordinates": [[[94.1249897081796, 25.57063309438649], [94.1849897081796, 25.57063309438649], [94.1849897081796, 25.630633094386493], [94.1249897081796, 25.630633094386493], [94.1249897081796, 25.57063309438649]]]}}, {"type": "Feature", "properties": {"zone_id": "Z26", "name": "Shillong Sector 3", "district": "East Khasi Hills", "state": "Meghalaya"}, "geometry": {"type": "Polygon", "coordinates": [[[91.91122670696451, 25.514028014702113], [91.97122670696452, 25.514028014702113], [91.97122670696452, 25.574028014702115], [91.91122670696451, 25.574028014702115], [91.91122670696451, 25.514028014702113]]]}}, {"type": "Feature", "properties": {"zone_id": "Z27", "name": "Aizawl Sector 3", "district": "Aizawl", "state": "Mizoram"}, "geometry": {"type": "Polygon", "coordinates": [[[92.62884529648552, 23.662855702750477], [92.68884529648552, 23.662855702750477], [92.68884529648552, 23.72285570275048], [92.62884529648552, 23.72285570275048], [92.62884529648552, 23.662855702750477]]]}}, {"type": "Feature", "properties": {"zone_id": "Z28", "name": "Gangtok Sector 3", "district": "Gangtok", "state": "Sikkim"}, "geometry": {"type": "Polygon", "coordinates": [[[88.65859963154402, 27.35167519940498], [88.71859963154402, 27.35167519940498], [88.71859963154402, 27.411675199404982], [88.65859963154402, 27.411675199404982], [88.65859963154402, 27.35167519940498]]]}}, {"type": "Feature", "properties": {"zone_id": "Z29", "name": "Itanagar Sector 3", "district": "Papum Pare", "state": "Arunachal Pradesh"}, "geometry": {"type": "Polygon", "coordinates": [[[93.58121357466024, 26.988067030461036], [93.64121357466024, 26.988067030461036], [93.64121357466024, 27.048067030461038], [93.58121357466024, 27.048067030461038], [93.58121357466024, 26.988067030461036]]]}}, {"type": "Feature", "properties": {"zone_id": "Z30", "name": "Imphal Sector 3", "district": "Imphal West", "state": "Manipur"}, "geometry": {"type": "Polygon", "coordinates": [[[93.96318558305506, 24.793562953937627], [94.02318558305507, 24.793562953937627], [94.02318558305507, 24.85356295393763], [93.96318558305506, 24.85356295393763], [93.96318558305506, 24.793562953937627]]]}}, {"type": "Feature", "properties": {"zone_id": "Z31", "name": "Guwahati Sector 3", "district": "Kamrup Metro", "state": "Assam"}, "geometry": {"type": "Polygon", "coordinates": [[[91.60988929045267, 26.12560387147071], [91.66988929045267, 26.12560387147071], [91.66988929045267, 26.18560387147071], [91.60988929045267, 26.18560387147071], [91.60988929045267, 26.12560387147071]]]}}, {"type": "Feature", "properties": {"zone_id": "Z32", "name": "Tawang Sector 3", "district": "Tawang", "state": "Arunachal Pradesh"}, "geometry": {"type": "Polygon", "coordinates": [[[91.8162991296481, 27.67900066820367], [91.8762991296481, 27.67900066820367], [91.8762991296481, 27.739000668203673], [91.8162991296481, 27.739000668203673], [91.8162991296481, 27.67900066820367]]]}}, {"type": "Feature", "properties": {"zone_id": "Z33", "name": "Churachandpur Sector 3", "district": "Churachandpur", "state": "Manipur"}, "geometry": {"type": "Polygon", "coordinates": [[[93.72318558432694, 24.376379561370303], [93.78318558432694, 24.376379561370303], [93.78318558432694, 24.436379561370305], [93.72318558432694, 24.436379561370305], [93.72318558432694, 24.376379561370303]]]}}, {"type": "Feature", "properties": {"zone_id": "Z34", "name": "Dimapur Hills Sector 3", "district": "Dimapur", "state": "Nagaland"}, "geometry": {"type": "Polygon", "coordinates": [[[93.66772635947615, 25.86101675562973], [93.72772635947615, 25.86101675562973], [93.72772635947615, 25.921016755629733], [93.66772635947615, 25.921016755629733], [93.66772635947615, 25.86101675562973]]]}}, {"type": "Feature", "properties": {"zone_id": "Z35", "name": "Cherrapunji Sector 3", "district": "East Khasi Hills", "state": "Meghalaya"}, "geometry": {"type": "Polygon", "coordinates": [[[91.56719057344355, 25.19963068844476], [91.62719057344356, 25.19963068844476], [91.62719057344356, 25.259630688444762], [91.56719057344355, 25.259630688444762], [91.56719057344355, 25.19963068844476]]]}}, {"type": "Feature", "properties": {"zone_id": "Z36", "name": "Lunglei Sector 3", "district": "Lunglei", "state": "Mizoram"}, "geometry": {"type": "Polygon", "coordinates": [[[92.6556469619539, 22.946400554241688], [92.71564696195391, 22.946400554241688], [92.71564696195391, 23.00640055424169], [92.6556469619539, 23.00640055424169], [92.6556469619539, 22.946400554241688]]]}}, {"type": "Feature", "properties": {"zone_id": "Z37", "name": "Kohima Sector 4", "district": "Kohima", "state": "Nagaland"}, "geometry": {"type": "Polygon", "coordinates": [[[94.07485518673359, 25.71644281389392], [94.13485518673359, 25.71644281389392], [94.13485518673359, 25.776442813893922], [94.07485518673359, 25.776442813893922], [94.07485518673359, 25.71644281389392]]]}}, {"type": "Feature", "properties": {"zone_id": "Z38", "name": "Shillong Sector 4", "district": "East Khasi Hills", "state": "Meghalaya"}, "geometry": {"type": "Polygon", "coordinates": [[[91.80522258713795, 25.499255522002667], [91.86522258713795, 25.499255522002667], [91.86522258713795, 25.55925552200267], [91.80522258713795, 25.55925552200267], [91.80522258713795, 25.499255522002667]]]}}, {"type": "Feature", "properties": {"zone_id": "Z39", "name": "Aizawl Sector 4", "district": "Aizawl", "state": "Mizoram"}, "geometry": {"type": "Polygon", "coordinates": [[[92.6455421471107, 23.597917415902216], [92.7055421471107, 23.597917415902216], [92.7055421471107, 23.65791741590222], [92.6455421471107, 23.65791741590222], [92.6455421471107, 23.597917415902216]]]}}, {"type": "Feature", "properties": {"zone_id": "Z40", "name": "Gangtok Sector 4", "district": "Gangtok", "state": "Sikkim"}, "geometry": {"type": "Polygon", "coordinates": [[[88.56512737167621, 27.342445215031553], [88.62512737167621, 27.342445215031553], [88.62512737167621, 27.402445215031555], [88.56512737167621, 27.402445215031555], [88.56512737167621, 27.342445215031553]]]}}, {"type": "Feature", "properties": {"zone_id": "Z41", "name": "Itanagar Sector 4", "district": "Papum Pare", "state": "Arunachal Pradesh"}, "geometry": {"type": "Polygon", "coordinates": [[[93.52667868404664, 27.114508887149107], [93.58667868404665, 27.114508887149107], [93.58667868404665, 27.17450888714911], [93.52667868404664, 27.17450888714911], [93.52667868404664, 27.114508887149107]]]}}, {"type": "Feature", "properties": {"zone_id": "Z42", "name": "Imphal Sector 4", "district": "Imphal West", "state": "Manipur"}, "geometry": {"type": "Polygon", "coordinates": [[[93.79288507516573, 24.86548750654199], [93.85288507516573, 24.86548750654199], [93.85288507516573, 24.92548750654199], [93.79288507516573, 24.92548750654199], [93.79288507516573, 24.86548750654199]]]}}, {"type": "Feature", "properties": {"zone_id": "Z43", "name": "Guwahati Sector 4", "district": "Kamrup Metro", "state": "Assam"}, "geometry": {"type": "Polygon", "coordinates": [[[91.80794432926156, 26.192457424402733], [91.86794432926156, 26.192457424402733], [91.86794432926156, 26.252457424402735], [91.80794432926156, 26.252457424402735], [91.80794432926156, 26.192457424402733]]]}}, {"type": "Feature", "properties": {"zone_id": "Z44", "name": "Tawang Sector 4", "district": "Tawang", "state": "Arunachal Pradesh"}, "geometry": {"type": "Polygon", "coordinates": [[[91.8272010995027, 27.520428303738434], [91.8872010995027, 27.520428303738434], [91.8872010995027, 27.580428303738437], [91.8272010995027, 27.580428303738437], [91.8272010995027, 27.520428303738434]]]}}, {"type": "Feature", "properties": {"zone_id": "Z45", "name": "Churachandpur Sector 4", "district": "Churachandpur", "state": "Manipur"}, "geometry": {"type": "Polygon", "coordinates": [[[93.61750949903349, 24.222929661053655], [93.67750949903349, 24.222929661053655], [93.67750949903349, 24.282929661053657], [93.61750949903349, 24.282929661053657], [93.61750949903349, 24.222929661053655]]]}}, {"type": "Feature", "properties": {"zone_id": "Z46", "name": "Dimapur Hills Sector 4", "district": "Dimapur", "state": "Nagaland"}, "geometry": {"type": "Polygon", "coordinates": [[[93.7399553519857, 25.894510935603794], [93.7999553519857, 25.894510935603794], [93.7999553519857, 25.954510935603796], [93.7399553519857, 25.954510935603796], [93.7399553519857, 25.894510935603794]]]}}, {"type": "Feature", "properties": {"zone_id": "Z47", "name": "Cherrapunji Sector 4", "district": "East Khasi Hills", "state": "Meghalaya"}, "geometry": {"type": "Polygon", "coordinates": [[[91.70826884613541, 25.250425718761], [91.76826884613541, 25.250425718761], [91.76826884613541, 25.310425718761003], [91.70826884613541, 25.310425718761003], [91.70826884613541, 25.250425718761]]]}}, {"type": "Feature", "properties": {"zone_id": "Z48", "name": "Lunglei Sector 4", "district": "Lunglei", "state": "Mizoram"}, "geometry": {"type": "Polygon", "coordinates": [[[92.66395157755578, 22.823881228205007], [92.72395157755578, 22.823881228205007], [92.72395157755578, 22.88388122820501], [92.66395157755578, 22.88388122820501], [92.66395157755578, 22.823881228205007]]]}}], "properties": {"data_mode": "DEMO", "note": "synthetic"}}